<xml>
<item>
<COMMENT>GENERATED VIA SPACETRACK.ORG API</COMMENT>
<ORIGINATOR>18 SPCS</ORIGINATOR>
<NORAD_CAT_ID>56793</NORAD_CAT_ID>
<OBJECT_NAME>STARLINK-6052</OBJECT_NAME>
<OBJECT_TYPE>PAYLOAD</OBJECT_TYPE>
<CLASSIFICATION_TYPE>U</CLASSIFICATION_TYPE>
<INTLDES>23078AC</INTLDES>
<EPOCH>2023-10-23 15:10:52</EPOCH>
<EPOCH_MICROSECONDS>853952</EPOCH_MICROSECONDS>
<MEAN_MOTION>14.9863931</MEAN_MOTION>
<ECCENTRICITY>0.0003291</ECCENTRICITY>
<INCLINATION>70</INCLINATION>
<RA_OF_ASC_NODE>13.1357</RA_OF_ASC_NODE>
<ARG_OF_PERICENTER>262.7305</ARG_OF_PERICENTER>
<MEAN_ANOMALY>97.348</MEAN_ANOMALY>
<EPHEMERIS_TYPE>0</EPHEMERIS_TYPE>
<ELEMENT_SET_NO>999</ELEMENT_SET_NO>
<REV_AT_EPOCH>2291</REV_AT_EPOCH>
<BSTAR>-0.0046326</BSTAR>
<MEAN_MOTION_DOT>-0.00055377</MEAN_MOTION_DOT>
<MEAN_MOTION_DDOT>0</MEAN_MOTION_DDOT>
<FILE>4049747</FILE>
<TLE_LINE0>0 STARLINK-6052</TLE_LINE0>
<TLE_LINE1>1 56793U 23078AC 23296.63255618 -.00055377 00000-0 -46326-2 0 9990</TLE_LINE1>
<TLE_LINE2>2 56793 70.0000 13.1357 0003291 262.7305 97.3480 14.98639310 22918</TLE_LINE2>
<OBJECT_ID>2023-078AC</OBJECT_ID>
<OBJECT_NUMBER>56793</OBJECT_NUMBER>
<SEMIMAJOR_AXIS>6949.237</SEMIMAJOR_AXIS>
<PERIOD>96.087</PERIOD>
<APOGEE>573.389</APOGEE>
<PERIGEE>568.815</PERIGEE>
<DECAYED>0</DECAYED>
</item>
<item>
<COMMENT>GENERATED VIA SPACETRACK.ORG API</COMMENT>
<ORIGINATOR>18 SPCS</ORIGINATOR>
<NORAD_CAT_ID>56793</NORAD_CAT_ID>
<OBJECT_NAME>STARLINK-6052</OBJECT_NAME>
<OBJECT_TYPE>PAYLOAD</OBJECT_TYPE>
<CLASSIFICATION_TYPE>U</CLASSIFICATION_TYPE>
<INTLDES>23078AC</INTLDES>
<EPOCH>2023-10-23 15:10:52</EPOCH>
<EPOCH_MICROSECONDS>853952</EPOCH_MICROSECONDS>
<MEAN_MOTION>14.9863931</MEAN_MOTION>
<ECCENTRICITY>0.0003291</ECCENTRICITY>
<INCLINATION>70</INCLINATION>
<RA_OF_ASC_NODE>13.1357</RA_OF_ASC_NODE>
<ARG_OF_PERICENTER>262.7305</ARG_OF_PERICENTER>
<MEAN_ANOMALY>97.348</MEAN_ANOMALY>
<EPHEMERIS_TYPE>0</EPHEMERIS_TYPE>
<ELEMENT_SET_NO>999</ELEMENT_SET_NO>
<REV_AT_EPOCH>2265</REV_AT_EPOCH>
<BSTAR>-0.0046326</BSTAR>
<MEAN_MOTION_DOT>-0.00055377</MEAN_MOTION_DOT>
<MEAN_MOTION_DDOT>0</MEAN_MOTION_DDOT>
<FILE>4050204</FILE>
<TLE_LINE0>0 STARLINK-6052</TLE_LINE0>
<TLE_LINE1>1 56793U 23078AC 23296.63255618 -.00055377 00000-0 -46326-2 0 9990</TLE_LINE1>
<TLE_LINE2>2 56793 70.0000 13.1357 0003291 262.7305 97.3480 14.98639310 22659</TLE_LINE2>
<OBJECT_ID>2023-078AC</OBJECT_ID>
<OBJECT_NUMBER>56793</OBJECT_NUMBER>
<SEMIMAJOR_AXIS>6949.237</SEMIMAJOR_AXIS>
<PERIOD>96.087</PERIOD>
<APOGEE>573.389</APOGEE>
<PERIGEE>568.815</PERIGEE>
<DECAYED>0</DECAYED>
</item>
<item>
<COMMENT>GENERATED VIA SPACETRACK.ORG API</COMMENT>
<ORIGINATOR>18 SPCS</ORIGINATOR>
<NORAD_CAT_ID>49178</NORAD_CAT_ID>
<OBJECT_NAME>STARLINK-3086</OBJECT_NAME>
<OBJECT_TYPE>PAYLOAD</OBJECT_TYPE>
<CLASSIFICATION_TYPE>U</CLASSIFICATION_TYPE>
<INTLDES>21082BA</INTLDES>
<EPOCH>2023-10-23 19:19:24</EPOCH>
<EPOCH_MICROSECONDS>744864</EPOCH_MICROSECONDS>
<MEAN_MOTION>14.9832566</MEAN_MOTION>
<ECCENTRICITY>0.0002241</ECCENTRICITY>
<INCLINATION>70</INCLINATION>
<RA_OF_ASC_NODE>322.6898</RA_OF_ASC_NODE>
<ARG_OF_PERICENTER>275.4515</ARG_OF_PERICENTER>
<MEAN_ANOMALY>84.6389</MEAN_ANOMALY>
<EPHEMERIS_TYPE>0</EPHEMERIS_TYPE>
<ELEMENT_SET_NO>999</ELEMENT_SET_NO>
<REV_AT_EPOCH>11713</REV_AT_EPOCH>
<BSTAR>0.0000029277</BSTAR>
<MEAN_MOTION_DOT>-0.00000058</MEAN_MOTION_DOT>
<MEAN_MOTION_DDOT>0</MEAN_MOTION_DDOT>
<FILE>4050204</FILE>
<TLE_LINE0>0 STARLINK-3086</TLE_LINE0>
<TLE_LINE1>1 49178U 21082BA 23296.80514751 -.00000058 00000-0 29277-5 0 9991</TLE_LINE1>
<TLE_LINE2>2 49178 70.0000 322.6898 0002241 275.4515 84.6389 14.98325660117139</TLE_LINE2>
<OBJECT_ID>2021-082BA</OBJECT_ID>
<OBJECT_NUMBER>49178</OBJECT_NUMBER>
<SEMIMAJOR_AXIS>6950.206</SEMIMAJOR_AXIS>
<PERIOD>96.107</PERIOD>
<APOGEE>573.629</APOGEE>
<PERIGEE>570.514</PERIGEE>
<DECAYED>0</DECAYED>
</item>
<item>
<COMMENT>GENERATED VIA SPACETRACK.ORG API</COMMENT>
<ORIGINATOR>18 SPCS</ORIGINATOR>
<NORAD_CAT_ID>55397</NORAD_CAT_ID>
<OBJECT_NAME>STARLINK-5224</OBJECT_NAME>
<OBJECT_TYPE>PAYLOAD</OBJECT_TYPE>
<CLASSIFICATION_TYPE>U</CLASSIFICATION_TYPE>
<INTLDES>23014G</INTLDES>
<EPOCH>2023-10-23 19:24:29</EPOCH>
<EPOCH_MICROSECONDS>521728</EPOCH_MICROSECONDS>
<MEAN_MOTION>14.98334811</MEAN_MOTION>
<ECCENTRICITY>0.0003087</ECCENTRICITY>
<INCLINATION>70</INCLINATION>
<RA_OF_ASC_NODE>72.8701</RA_OF_ASC_NODE>
<ARG_OF_PERICENTER>272.1179</ARG_OF_PERICENTER>
<MEAN_ANOMALY>87.9627</MEAN_ANOMALY>
<EPHEMERIS_TYPE>0</EPHEMERIS_TYPE>
<ELEMENT_SET_NO>999</ELEMENT_SET_NO>
<REV_AT_EPOCH>4254</REV_AT_EPOCH>
<BSTAR>0.000088651</BSTAR>
<MEAN_MOTION_DOT>0.00000965</MEAN_MOTION_DOT>
<MEAN_MOTION_DDOT>0</MEAN_MOTION_DDOT>
<FILE>4050204</FILE>
<TLE_LINE0>0 STARLINK-5224</TLE_LINE0>
<TLE_LINE1>1 55397U 23014G 23296.80867502 .00000965 00000-0 88651-4 0 9999</TLE_LINE1>
<TLE_LINE2>2 55397 70.0000 72.8701 0003087 272.1179 87.9627 14.98334811 42546</TLE_LINE2>
<OBJECT_ID>2023-014G</OBJECT_ID>
<OBJECT_NUMBER>55397</OBJECT_NUMBER>
<SEMIMAJOR_AXIS>6950.178</SEMIMAJOR_AXIS>
<PERIOD>96.107</PERIOD>
<APOGEE>574.189</APOGEE>
<PERIGEE>569.897</PERIGEE>
<DECAYED>0</DECAYED>
</item>
<item>
<COMMENT>GENERATED VIA SPACETRACK.ORG API</COMMENT>
<ORIGINATOR>18 SPCS</ORIGINATOR>
<NORAD_CAT_ID>55668</NORAD_CAT_ID>
<OBJECT_NAME>STARLINK-5455</OBJECT_NAME>
<OBJECT_TYPE>PAYLOAD</OBJECT_TYPE>
<CLASSIFICATION_TYPE>U</CLASSIFICATION_TYPE>
<INTLDES>23021AS</INTLDES>
<EPOCH>2023-10-23 19:32:16</EPOCH>
<EPOCH_MICROSECONDS>55808</EPOCH_MICROSECONDS>
<MEAN_MOTION>14.98336917</MEAN_MOTION>
<ECCENTRICITY>0.0002995</ECCENTRICITY>
<INCLINATION>70</INCLINATION>
<RA_OF_ASC_NODE>192.7393</RA_OF_ASC_NODE>
<ARG_OF_PERICENTER>273.6083</ARG_OF_PERICENTER>
<MEAN_ANOMALY>86.4733</MEAN_ANOMALY>
<EPHEMERIS_TYPE>0</EPHEMERIS_TYPE>
<ELEMENT_SET_NO>999</ELEMENT_SET_NO>
<REV_AT_EPOCH>3898</REV_AT_EPOCH>
<BSTAR>-0.0000887</BSTAR>
<MEAN_MOTION_DOT>-0.00001151</MEAN_MOTION_DOT>
<MEAN_MOTION_DDOT>0</MEAN_MOTION_DDOT>
<FILE>4049950</FILE>
<TLE_LINE0>0 STARLINK-5455</TLE_LINE0>
<TLE_LINE1>1 55668U 23021AS 23296.81407472 -.00001151 00000-0 -88700-4 0 9990</TLE_LINE1>
<TLE_LINE2>2 55668 70.0000 192.7393 0002995 273.6083 86.4733 14.98336917 38987</TLE_LINE2>
<OBJECT_ID>2023-021AS</OBJECT_ID>
<OBJECT_NUMBER>55668</OBJECT_NUMBER>
<SEMIMAJOR_AXIS>6950.172</SEMIMAJOR_AXIS>
<PERIOD>96.107</PERIOD>
<APOGEE>574.118</APOGEE>
<PERIGEE>569.955</PERIGEE>
<DECAYED>0</DECAYED>
</item>
<item>
<COMMENT>GENERATED VIA SPACETRACK.ORG API</COMMENT>
<ORIGINATOR>18 SPCS</ORIGINATOR>
<NORAD_CAT_ID>55409</NORAD_CAT_ID>
<OBJECT_NAME>STARLINK-5047</OBJECT_NAME>
<OBJECT_TYPE>PAYLOAD</OBJECT_TYPE>
<CLASSIFICATION_TYPE>U</CLASSIFICATION_TYPE>
<INTLDES>23014U</INTLDES>
<EPOCH>2023-10-23 19:42:50</EPOCH>
<EPOCH_MICROSECONDS>681952</EPOCH_MICROSECONDS>
<MEAN_MOTION>14.98339936</MEAN_MOTION>
<ECCENTRICITY>0.0002906</ECCENTRICITY>
<INCLINATION>70</INCLINATION>
<RA_OF_ASC_NODE>92.8067</RA_OF_ASC_NODE>
<ARG_OF_PERICENTER>271.2529</ARG_OF_PERICENTER>
<MEAN_ANOMALY>88.8297</MEAN_ANOMALY>
<EPHEMERIS_TYPE>0</EPHEMERIS_TYPE>
<ELEMENT_SET_NO>999</ELEMENT_SET_NO>
<REV_AT_EPOCH>4205</REV_AT_EPOCH>
<BSTAR>-0.000085906</BSTAR>
<MEAN_MOTION_DOT>-0.00001118</MEAN_MOTION_DOT>
<MEAN_MOTION_DDOT>0</MEAN_MOTION_DDOT>
<FILE>4050204</FILE>
<TLE_LINE0>0 STARLINK-5047</TLE_LINE0>
<TLE_LINE1>1 55409U 23014U 23296.82141993 -.00001118 00000-0 -85906-4 0 9997</TLE_LINE1>
<TLE_LINE2>2 55409 70.0000 92.8067 0002906 271.2529 88.8297 14.98339936 42057</TLE_LINE2>
<OBJECT_ID>2023-014U</OBJECT_ID>
<OBJECT_NUMBER>55409</OBJECT_NUMBER>
<SEMIMAJOR_AXIS>6950.162</SEMIMAJOR_AXIS>
<PERIOD>96.106</PERIOD>
<APOGEE>574.047</APOGEE>
<PERIGEE>570.007</PERIGEE>
<DECAYED>0</DECAYED>
</item>
<item>
<COMMENT>GENERATED VIA SPACETRACK.ORG API</COMMENT>
<ORIGINATOR>18 SPCS</ORIGINATOR>
<NORAD_CAT_ID>55762</NORAD_CAT_ID>
<OBJECT_NAME>STARLINK-5603</OBJECT_NAME>
<OBJECT_TYPE>PAYLOAD</OBJECT_TYPE>
<CLASSIFICATION_TYPE>U</CLASSIFICATION_TYPE>
<INTLDES>23028X</INTLDES>
<EPOCH>2023-10-23 21:33:26</EPOCH>
<EPOCH_MICROSECONDS>288352</EPOCH_MICROSECONDS>
<MEAN_MOTION>14.98329011</MEAN_MOTION>
<ECCENTRICITY>0.0003002</ECCENTRICITY>
<INCLINATION>70</INCLINATION>
<RA_OF_ASC_NODE>252.5703</RA_OF_ASC_NODE>
<ARG_OF_PERICENTER>270.2142</ARG_OF_PERICENTER>
<MEAN_ANOMALY>89.8673</MEAN_ANOMALY>
<EPHEMERIS_TYPE>0</EPHEMERIS_TYPE>
<ELEMENT_SET_NO>999</ELEMENT_SET_NO>
<REV_AT_EPOCH>3654</REV_AT_EPOCH>
<BSTAR>-0.0000056675</BSTAR>
<MEAN_MOTION_DOT>-0.00000161</MEAN_MOTION_DOT>
<MEAN_MOTION_DDOT>0</MEAN_MOTION_DDOT>
<FILE>4050204</FILE>
<TLE_LINE0>0 STARLINK-5603</TLE_LINE0>
<TLE_LINE1>1 55762U 23028X 23296.89822093 -.00000161 00000-0 -56675-5 0 9997</TLE_LINE1>
<TLE_LINE2>2 55762 70.0000 252.5703 0003002 270.2142 89.8673 14.98329011 36548</TLE_LINE2>
<OBJECT_ID>2023-028X</OBJECT_ID>
<OBJECT_NUMBER>55762</OBJECT_NUMBER>
<SEMIMAJOR_AXIS>6950.196</SEMIMAJOR_AXIS>
<PERIOD>96.107</PERIOD>
<APOGEE>574.147</APOGEE>
<PERIGEE>569.975</PERIGEE>
<DECAYED>0</DECAYED>
</item>

</xml>
